OBJECT_NAME,OBJECT_ID,EPOCH,MEAN_MOTION,ECCENTRICITY,INCLINATION,RA_OF_ASC_NODE,ARG_OF_PERICENTER,MEAN_ANOMALY,EPHEMERIS_TYPE,CLASSIFICATION_TYPE,NORAD_CAT_ID,ELEMENT_SET_NO,REV_AT_EPOCH,BSTAR,MEAN_MOTION_DOT,MEAN_MOTION_DDOT
STARLINK-33612,2025-057U,2026-07-15T12:24:37.492704,15.27595869,.00008073,42.9967,29.2368,91.1307,268.9637,0,U,63325,999,7532,.41698717E-3,.11236E-3,0
STARLINK-33672,2025-057V,2026-07-14T21:19:52.007232,15.27583756,.0002485,43.0008,32.2384,32.1021,327.9982,0,U,63326,999,7523,.32782E-3,.877E-4,0
STARLINK-33625,2025-057W,2026-07-15T14:00:01.999872,15.27591142,.00015459,43.0037,20.9713,264.3058,145.5399,0,U,63327,999,576,-.12829362E-3,-.3792E-4,0
STARLINK-33699,2025-057X,2026-07-14T20:14:38.061312,15.27565248,.0001727,43.0016,24.9922,301.8366,58.2317,0,U,63328,999,7527,.30945E-3,.8259E-4,0
STARLINK-33674,2025-057Y,2026-07-14T23:27:18.507456,15.27593388,.00015798,43.0022,32.0643,281.2189,78.8485,0,U,63329,999,7524,.45039745E-3,.12157E-3,0
STARLINK-32840,2025-063A,2026-07-15T09:48:31.565088,15.34400902,.00010603,53.1576,174.9913,86.2138,273.8986,0,U,63363,999,7435,.27366629E-3,.8881E-4,0
STARLINK-32543,2025-063B,2026-07-15T08:41:59.988768,15.34401203,.00011986,53.1574,175.4114,79.3342,280.7796,0,U,63364,999,7435,.33874708E-3,.11086E-3,0
STARLINK-33741,2025-063C,2026-07-15T06:16:49.109664,15.34405201,.00012117,53.1574,176.1878,97.5501,262.5639,0,U,63365,999,7434,.30771808E-3,.10036E-3,0
STARLINK-33742,2025-063D,2026-07-15T06:19:35.810688,15.30206101,.00011289,53.1578,179.7523,76.9676,283.1450,0,U,63366,999,7424,.16773796E-3,.4613E-4,0
STARLINK-33734,2025-063E,2026-07-15T14:00:01.999872,15.34399426,.00004874,53.1579,188.2339,65.2299,234.7758,0,U,63367,999,586,-.72968063E-3,-.24947E-3,0
STARLINK-33578,2025-063F,2026-07-15T06:13:47.482176,15.34396060,.00012166,53.1575,176.1787,89.4418,270.6724,0,U,63368,999,7428,.15027609E-3,.4704E-4,0
STARLINK-33626,2025-063G,2026-07-15T07:20:18.280032,15.34440086,.00009567,53.1568,175.7554,83.1369,276.9742,0,U,63369,999,7430,.95503213E-3,.3207E-3,0
STARLINK-33657,2025-063H,2026-07-15T07:41:31.507584,15.34402965,.00012309,53.1570,175.8461,79.7637,280.3504,0,U,63370,999,7430,.19918077E-3,.636E-4,0
STARLINK-33648,2025-063J,2026-07-15T07:37:55.090272,15.31705861,.0001055,53.1565,179.3807,101.7699,258.3421,0,U,63371,999,7430,.18122579E-3,.5264E-4,0
STARLINK-33614,2025-063K,2026-07-15T06:22:51.883392,15.34383289,.00010856,53.1584,176.2163,88.3116,271.8010,0,U,63372,999,7434,-.12382926E-3,-.4555E-4,0
STARLINK-33617,2025-063L,2026-07-15T08:05:45.934944,15.34396543,.00013462,53.1579,175.9460,87.7185,272.3971,0,U,63373,999,7430,.16558448E-3,.5222E-4,0
STARLINK-33618,2025-063M,2026-07-15T08:23:49.148160,15.34399421,.0001274,53.1585,175.3171,88.6736,271.4413,0,U,63374,999,7436,.33393537E-3,.10923E-3,0
STARLINK-33621,2025-063N,2026-07-15T08:32:54.142080,15.34402981,.00013162,53.1578,175.3586,79.8379,280.2772,0,U,63375,999,7431,.31888929E-3,.10414E-3,0
STARLINK-33539,2025-063P,2026-07-15T14:00:01.999872,15.34350349,.00006577,53.1576,188.3489,32.7531,209.1657,0,U,63376,999,581,.41967016E-3,.13807E-3,0
STARLINK-33634,2025-063Q,2026-07-15T14:00:01.999872,15.33562253,.00012444,53.1585,178.1786,64.9022,300.4498,0,U,63377,999,585,-.80663255E-3,-.26818E-3,0
STARLINK-33640,2025-063R,2026-07-15T11:04:49.443168,15.30206152,.00013295,53.1572,178.8471,74.0197,286.0950,0,U,63378,999,7432,.3441877E-3,.985E-4,0
STARLINK-33636,2025-063S,2026-07-15T07:56:53.332512,15.41740116,.00044874,53.1595,175.9224,73.9390,286.2110,0,U,63379,999,7430,.12272854E-2,.52628E-3,0
STARLINK-33653,2025-063T,2026-07-15T06:10:40.576512,15.31707818,.00012641,53.1565,179.7087,79.6149,280.4995,0,U,63380,999,7424,.26598098E-3,.7899E-4,0
STARLINK-33643,2025-063U,2026-07-15T14:03:25.684416,15.34144786,.0001741,53.1594,178.2010,76.0027,284.1169,0,U,63381,999,7434,.74156212E-2,.256829E-2,0
STARLINK-33748,2025-063W,2026-07-15T05:14:07.658016,15.34396874,.00014628,53.1568,190.1137,96.2882,263.8287,0,U,63383,999,7414,.18638068E-3,.5925E-4,0
STARLINK-33658,2025-063X,2026-07-15T07:44:34.019808,15.34418753,.00015751,53.1572,175.8518,75.6868,284.4309,0,U,63384,999,7435,.32276602E-3,.10551E-3,0
STARLINK-33616,2025-063Y,2026-07-15T10:04:36.428448,15.34396262,.00013891,53.1579,189.2473,83.0272,277.0889,0,U,63385,999,7412,.15279196E-3,.4789E-4,0
STARLINK-33571,2025-063Z,2026-07-15T09:00:16.435008,15.34402399,.00011142,53.1573,187.5272,81.6371,278.4757,0,U,63386,999,7414,.3114952E-3,.10163E-3,0
STARLINK-33533,2025-063AA,2026-07-15T09:12:17.589024,15.34395458,.00012598,53.1572,175.5256,83.8499,276.2647,0,U,63387,999,7431,.12345114E-3,.3796E-4,0
STARLINK-33629,2025-063AB,2026-07-15T15:18:23.004864,15.34408047,.00014317,53.1590,174.2629,77.7109,282.4054,0,U,63388,999,7440,.14955393E-3,.4681E-4,0
STARLINK-33656,2025-063AC,2026-07-15T09:31:54.208416,15.31707565,.00012055,53.1581,178.4509,81.2816,278.8322,0,U,63389,999,7432,.14341032E-3,.4089E-4,0
STARLINK-33531,2025-065A,2026-07-14T22:47:41.860320,15.27594409,.00013503,43.0027,108.3062,269.5266,90.5431,0,U,63399,999,7230,.5353071E-3,.14504E-3,0
STARLINK-33652,2025-065B,2026-07-15T02:53:09.012480,15.27609575,.0000619,43.0005,107.0022,266.7401,93.3380,0,U,63400,999,7233,.77746308E-3,.21213E-3,0
STARLINK-33707,2025-065C,2026-07-15T01:50:27.390624,15.27594386,.00012447,43.0042,107.5437,283.9103,76.1610,0,U,63401,999,7232,.44353386E-3,.11968E-3,0
STARLINK-33668,2025-065D,2026-07-15T02:16:21.848448,15.27591367,.00010876,42.9992,107.6747,276.5313,83.5415,0,U,63402,999,7232,.33575303E-3,.8992E-4,0
STARLINK-33676,2025-065E,2026-07-15T03:22:45.738624,15.27593198,.00013357,43.0045,107.1580,266.0525,94.0174,0,U,63403,999,7233,.36689808E-3,.9852E-4,0
STARLINK-33711,2025-065F,2026-07-15T02:51:17.807904,15.27595816,.00019486,43.0051,106.9939,264.3633,95.6996,0,U,63404,999,7233,.39801081E-3,.10711E-3,0
STARLINK-33708,2025-065G,2026-07-15T03:28:19.791264,15.27615021,.0001233,43.0042,107.1836,263.4266,96.6445,0,U,63405,999,7233,.79637612E-3,.2174E-3,0
STARLINK-33690,2025-065H,2026-07-15T02:44:36.085056,15.27587978,.00013317,43.0018,103.5010,274.6795,85.3904,0,U,63406,999,7237,.35578908E-3,.9543E-4,0
STARLINK-33694,2025-065J,2026-07-15T03:17:12.466176,15.27585940,.00013806,43.0034,107.1227,261.7665,98.3031,0,U,63407,999,7233,.36963275E-3,.9925E-4,0
STARLINK-33692,2025-065K,2026-07-15T04:19:26.910048,15.27598422,.00010162,42.9998,110.9031,285.0443,75.0297,0,U,63408,999,7229,.66619457E-3,.18125E-3,0
STARLINK-33693,2025-065L,2026-07-15T02:08:56.810688,15.27602498,.00030094,43.0044,107.6237,250.2917,109.7610,0,U,63409,999,7232,.58267142E-3,.15818E-3,0
STARLINK-33677,2025-065M,2026-07-14T22:49:33.801024,15.27597995,.0002346,43.0053,108.3021,246.2747,113.7859,0,U,63410,999,7230,.86277364E-3,.23569E-3,0
STARLINK-33647,2025-065N,2026-07-15T14:00:01.999872,15.27576524,.00013376,43.0008,112.2902,263.6675,74.0807,0,U,63411,999,584,.23273865E-3,.6147E-4,0
STARLINK-33645,2025-065P,2026-07-15T03:20:11.987232,15.27584576,.0000917,43.0029,110.5301,268.1153,91.9593,0,U,63412,999,7229,.36631752E-3,.9833E-4,0
STARLINK-33670,2025-065Q,2026-07-15T03:26:25.701792,15.27571051,.00012505,43.0018,107.1337,246.8970,113.1750,0,U,63413,999,7233,-.78998871E-3,-.21931E-3,0
STARLINK-33644,2025-065R,2026-07-15T04:33:03.492864,15.27590471,.00011718,43.0013,107.4712,255.7298,104.3423,0,U,63414,999,7233,.29277439E-3,.7806E-4,0
STARLINK-33664,2025-065S,2026-07-15T05:11:42.297792,15.27587562,.00013277,43.0043,106.8183,264.9519,95.1181,0,U,63415,999,7234,.21479796E-3,.5654E-4,0
STARLINK-33649,2025-065T,2026-07-15T03:19:02.842176,15.27585327,.00010725,43.0032,107.0768,269.0243,91.0486,0,U,63416,999,7233,.25970814E-3,.6892E-4,0
STARLINK-33535,2025-065U,2026-07-15T03:35:41.658144,15.27594985,.00015355,43.0028,107.1520,267.1361,92.9315,0,U,63417,999,7233,.34738193E-3,.9313E-4,0
STARLINK-33703,2025-065V,2026-07-15T04:05:18.013632,15.27605401,.00021767,42.9999,107.3208,251.1844,108.8771,0,U,63418,999,7233,.36455475E-3,.9791E-4,0
STARLINK-33709,2025-065W,2026-07-15T14:00:01.999872,15.27575394,.00015242,43.0005,105.0391,261.5369,191.1490,0,U,63419,999,581,.89986868E-3,.2458E-3,0
STARLINK-33698,2025-065X,2026-07-14T23:59:37.780512,15.27587459,.00014687,43.0011,107.7489,256.3402,103.7286,0,U,63420,999,7231,.22038352E-3,.5809E-4,0
STARLINK-33606,2025-065Y,2026-07-14T22:51:22.974336,15.27586677,.00017053,43.0040,108.2607,272.6216,87.4441,0,U,63421,999,7230,.34162765E-3,.9152E-4,0
STARLINK-33686,2025-065Z,2026-07-15T03:48:38.972160,15.27589856,.00022732,43.0023,107.2303,274.7571,85.3021,0,U,63422,999,7233,.38070703E-3,.10232E-3,0
STARLINK-33675,2025-065AA,2026-07-14T23:54:04.816512,15.27579839,.00013577,43.0003,107.7297,267.9968,92.0729,0,U,63423,999,7231,.16408693E-3,.4256E-4,0
STARLINK-33655,2025-065AB,2026-07-15T02:47:47.824800,15.27593720,.00011219,42.9999,107.7645,276.9415,83.1309,0,U,63424,999,7232,.42569653E-3,.11475E-3,0
STARLINK-33608,2025-065AC,2026-07-15T02:10:47.430336,15.27590080,.00016143,43.0025,107.5670,265.2949,94.7718,0,U,63425,999,7232,.44234763E-3,.11934E-3,0
STARLINK-33615,2025-065AD,2026-07-15T05:50:33.737856,15.27590098,.00015359,42.9998,107.0065,259.7765,100.2913,0,U,63426,999,7234,.5219829E-3,.14134E-3,0
STARLINK-33682,2025-069A,2026-07-15T11:05:11.109696,15.34396541,.00003858,53.1589,261.4171,75.0442,285.0603,0,U,63433,999,7307,.21280817E-3,.682E-4,0
STARLINK-33710,2025-069B,2026-07-15T11:08:13.271136,15.34381113,.00005543,53.1567,261.4289,97.0061,263.1005,0,U,63434,999,7307,.36299517E-3,.11901E-3,0
STARLINK-33733,2025-069C,2026-07-15T09:53:18.812256,15.34402883,.00008814,53.1567,263.2459,95.5716,264.5387,0,U,63435,999,7304,.49856013E-3,.16507E-3,0
STARLINK-33638,2025-069D,2026-07-15T10:53:04.524576,15.34385605,.00010086,53.1590,261.3591,54.1781,305.9315,0,U,63436,999,7307,.53495051E-3,.17733E-3,0
STARLINK-33726,2025-069E,2026-07-15T10:46:04.829664,15.49359988,.00014378,53.1587,259.9102,106.1884,253.9283,0,U,63437,999,7304,.45309518E-3,.24876E-3,0
